XRISM                   
1 57800U 23137A   23300.68003970  .00004711  00000+0  37924-3 0  9997
2 57800  31.0044  55.5717 0010192  58.1294 302.0332 14.98363659  7527
